NORAD ID,REFERENCE ALTITUDE EPOCH,REFERENCE ALTITUDE (KM),REFERENCE TLE 1,REFERENCE TLE 2,PREDICTION EPOCH,PREDICTION ALTITUDE (KM),LAST TLE LINE 1,LAST TLE LINE 2,ESTIMATED REENTRY EPOCH,ESTIMATED REENTRY ALTITUDE (KM),MIN DST
47144,2025-02-11 22:00:01+00:00,281,1 47144U 20088Y   25042.91667824  .00662391  20330-3  14020-2 0  9991,2 47144  53.0413 203.1137 0002449 318.8003 223.7628 15.98233042  6033,2025-03-01 02:00:01+00:00,96.9978046875,1 47144U 20088Y   25052.77815137  .14633607  12450-4  82062-3 0  9998,2 47144  53.0217 151.3852 0002831 307.0857 194.9210 16.42090499235515"}],2025-02-22 13:40:32+00:00,98.0747890625,-66.0
47136,2025-02-11 22:00:01+00:00,280,1 47136U 20088Q   25042.91667824  .00805132  30105-3  17745-2 0  9992,2 47136  53.0331 221.5224 0007331 231.7061 284.7060 15.97469076233717,2025-02-26 04:00:01+00:00,98.7822109375,1 47136U 20088Q   25052.89973759  .08858428  12390-4  83205-3 0  9993,2 47136  53.0267 169.1348 0008015 312.4421 147.5466 16.37757810235322"}],2025-02-23 11:35:37+00:00,93.26840625,-66.0
59514,2025-02-20 14:00:01+00:00,277,1 59514U 24073D   25051.58334491  .06300661  77100-1  13871-1 0  9999,2 59514  42.9839 307.4475 0022688 235.1121 124.4483 16.01839076  6218,2025-02-21 21:00:01+00:00,94.7880546875,1 59514U 24073D   25052.65341137  .09006158  88614-5  46761-2 0  9991,2 59514  42.9906 300.6195 0006205 253.3280 196.6168 16.19301859 49122"}],2025-02-24 00:40:55+00:00,97.5004375,-66.0
46081,2025-02-12 22:00:02+00:00,280,1 46081U 20055BG  25043.91668981  .01097018  59090-3  24093-2 0  9995,2 46081  53.0490  33.0130 0001376 115.6368  46.8203 15.97641672  5915,2025-02-23 06:00:02+00:00,99.4260546875,1 46081U 20055BG  25053.02976359  .02857942  12395-4  10000-3 0  9992,2 46081  53.0452 345.1882 0013991 156.9575 309.6254 16.43085236251670"}],2025-02-25 19:42:52+00:00,96.9516875,-66.0
45545,2025-02-06 22:00:02+00:00,280,1 45545U 20025Q   25037.91668981  .00490163  11326-3  10135-2 0  9998,2 45545  53.0396  44.2249 0004569  87.6051 263.0306 15.98643142  6006,2025-03-01 19:00:02+00:00,99.692515625,1 45545U 20025Q   25053.32747775  .12637540  12492-4  36935-3 0  9998,2 45545  53.0216 323.3699 0006709 267.1070 195.7690 16.44852345267882"}],2025-02-23 03:51:34+00:00,96.77375,-66.0
47601,2025-02-13 00:38:07+00:00,280,1 47601U 21009BF  25044.02646430  .00749604  27099-3  13879-2 0  9990,2 47601  53.0426 277.1891 0009209 178.3735 181.7326 16.00512603223413,2025-02-27 15:38:07+00:00,98.294078125,1 47601U 21009BF  25052.97393356  .10262300  12401-4  67623-3 0  9992,2 47601  53.0335 230.0642 0006485 279.7789 223.3470 16.40749226224862"}],2025-02-23 04:22:28+00:00,97.0279140625,-66.0
46785,2025-02-13 06:00:01+00:00,282,1 46785U 20074AY  25044.25001157  .00779733  28515-3  16315-2 0  9997,2 46785  53.0324 223.5771 0008817 246.4837 110.9833 15.98373664238295,2025-02-27 22:00:01+00:00,92.5699609375,1 46785U 20074AY  25052.83250321  .19651458  12681-4  42096-3 0  9996,2 46785  53.0295 178.4151 0009362 340.4592 156.6762 16.46053685239674"}],2025-02-22 08:58:48+00:00,94.0513515625,-66.0
47979,2025-02-11 22:00:01+00:00,282,1 47979U 21024C   25042.91667824  .01075346  56307-3  23911-2 0  9999,2 47979  53.0432 192.9933 0002123 350.9984   1.7139 15.97409498  5997,2025-02-22 14:00:01+00:00,98.12690625,1 47979U 21024C   25052.74170637  .21676245  12623-4  36665-3 0  9994,2 47979  53.0417 141.3512 0002508   9.0203 133.4946 16.47951837218095"}],2025-02-22 04:48:03+00:00,94.8026328125,-66.0
46591,2025-02-14 22:00:02+00:00,279,1 46591U 20070BM  25045.91668981  .00961548  45503-3  18818-2 0  9999,2 46591  53.0382  55.8142 0009166  29.0440 123.4834 15.99579188  6018,2025-02-26 10:00:02+00:00,97.3828828125,1 46591U 20070BM  25054.33397196  .10907526  12374-4  82297-3 0  9993,2 46591  53.0275  11.5065 0001102 356.8762  80.6842 16.39746537243286"}],2025-02-24 12:00:55+00:00,98.33546875,-66.0
45393,2025-02-06 14:00:01+00:00,280,1 45393U 20019AK  25037.58334491  .00415269  80690-4  99957-3 0  9996,2 45393  53.0423  84.7907 0008099  20.9397 358.3628 15.95870474  5903,2025-03-06 13:00:01+00:00,99.203453125,1 45393U 20019AK  25054.83411447  .55004097  12316-4  20696-2 0  9996,2 45393  53.0335 354.8888 0011711 137.5091 315.1982 16.43063456273386"}],2025-02-24 02:01:07+00:00,92.4569453125,-66.0
46133,2025-02-14 22:00:02+00:00,278,1 46133U 20057S   25045.91668981  .00773973  27855-3  16723-2 0  9992,2 46133  53.0293 176.3401 0007312 308.3020  60.5636 15.97823072249265,2025-03-01 17:00:02+00:00,97.5483515625,1 46133U 20057S   25055.36268997  .07717993  12277-4  11493-2 0  9994,2 46133  53.0155 126.8384 0006243 357.6470  52.6884 16.33591677250780"}],2025-02-26 07:42:16+00:00,99.0893359375,-66.0
45534,2025-02-21 18:35:34+00:00,235,1 45534U 20025D   25052.77470226  .01060316  77294-3  73713-3 0  9992,2 45534  53.0295 327.1250 0004557 158.1816 300.2667 16.15910142267704,2025-03-01 20:35:34+00:00,98.726828125,1 45534U 20025D   25055.43787074  .04292105  12053-4  89690-3 0  9990,2 45534  53.0256 312.9274 0007722 209.9078 324.9146 16.30148902268138"}],2025-02-28 08:30:32+00:00,98.5316484375,-66.0
45750,2025-02-10 14:00:02+00:00,282,1 45750U 20038W   25041.58335648  .00585646  16191-3  11426-2 0  9999,2 45750  53.0449 140.0152 0007978 342.2851 158.1800 15.99616548  6066,2025-03-01 13:00:02+00:00,97.0269921875,1 45750U 20038W   25055.21746152  .15506515  12583-4  10000-3 0  9994,2 45750  53.0362  68.3608 0010985 219.3255 225.4729 16.53084791261209"}],2025-02-24 14:13:09+00:00,99.9380546875,-66.0
59408,2025-02-20 22:00:02+00:00,275,1 59408U 24064L   25051.91668981  .04877762  44643-1  14839-1 0  9992,2 59408  42.9863  31.2641 0021228 162.2214 315.6515 15.96485673  6242,2025-02-22 17:00:02+00:00,88.03859375,1 59408U 24064L   25052.42084350  .04489794  26780-1  10460-1 0  9993,2 59408  42.9868  28.1097 0017198 164.2762 333.0208 15.99287143 51156"}],2025-02-23 12:06:01+00:00,98.0070703125,-66.0
47878,2025-02-15 14:00:03+00:00,280,1 47878U 21021U   25046.58336806  .00771493  28279-3  15358-2 0  9992,2 47878  53.0455 175.4054 0003408 318.5855  98.7621 15.99323081  6037,2025-03-02 00:00:03+00:00,99.815046875,1 47878U 21021U   25055.76717884  .19845140  12430-4  71120-3 0  9995,2 47878  53.0265 127.1078 0004535 231.2136 230.7975 16.44194757219326,2025-02-25 08:24:44+00:00,96.5545390625,-66.0
47575,2025-02-16 22:00:02+00:00,280,1 47575U 21009AD  25047.91668981  .00962098  45754-3  18631-2 0  9999,2 47575  53.0401 295.5894 0000513 162.4232 274.0625 15.99850414  6013,2025-02-28 13:00:02+00:00,95.5056875,1 47575U 21009AD  25056.65357193  .19360286  12572-4  45029-3 0  9996,2 47575  53.0251 249.5781 0007459 291.2550 148.1463 16.45856586224909"}],2025-02-26 03:41:09+00:00,99.3688828125,-66.0
46765,2022-05-14 04:08:14+00:00,546,1 46765U 20074AC  22134.17238846 -.00000776  00000-0 -33199-4 0  9993,2 46765  53.0534 121.3441 0002382  45.9478 314.1707 15.06403265 85859,,,1 46765U 20074AC  25056.69233987  .11002963  12415-4  91567-3 0  9996,2 46765  53.0328 178.8714 0007789 311.5506 188.5221 16.38797151240066"}],2025-02-26 21:36:58+00:00,97.17784375,-63.0
55270,2025-02-11 22:00:01+00:00,283,1 55270U 23010B   25042.91667824  .01369092  99101-3  30271-2 0  9999,2 55270  69.9975 300.3280 0004276 266.6220 117.6192 15.98024168  5922,2025-02-20 05:00:01+00:00,93.9621953125,1 55270U 23010B   25056.69312450  .18020015  45033-5  23167-3 0  9992,2 55270  69.9792 258.9976 0007783 255.1062 221.8403 16.49176874116387"}],2025-02-26 06:38:06+00:00,90.876515625,-66.0
48002,2025-02-15 14:00:03+00:00,281,1 48002U 21024AB  25046.58336806  .00812555  31629-3  16013-2 0  9992,2 48002  53.0432 165.5335 0003503 341.5088 142.4138 15.99504890  5986,2025-03-01 05:00:03+00:00,99.9155,1 48002U 21024AB  25055.69394880  .13835196  12446-4  83915-3 0  9993,2 48002  53.0251 117.6451 0002919 330.6802 122.7901 16.41481802218671"}],2025-02-25 14:39:17+00:00,92.484734375,-66.0
47992,2025-02-16 14:00:01+00:00,279,1 47992U 21024R   25047.58334491  .00866903  36951-3  15943-2 0  9998,2 47992  53.0412 154.8713 0009342   1.3260 126.8714 16.00642180  6033,2025-03-01 06:00:01+00:00,94.4494375,1 47992U 21024R   25056.12649616  .29029499  12641-4  34720-3 0  9994,2 47992  53.0174 109.8274 0000203  75.1219  22.0479 16.49971129218828"}],2025-02-25 10:02:09+00:00,97.3528515625,-66.0
47877,2025-02-16 22:00:02+00:00,281,1 47877U 21021T   25047.91668981  .00805089  30453-3  17017-2 0  9991,2 47877  53.0455 171.6135 0003064 308.8216 223.9724 15.98264753  5994,2025-03-03 02:00:02+00:00,98.8144453125,1 47877U 21021T   25057.65198130  .18101942  12516-4  68646-3 0  9999,2 47877  53.0309 120.4986 0002264 347.0877 152.4127 16.44216908219583,2025-02-27 07:38:51+00:00,88.8750625,-66.0
45548,2025-02-07 12:00:02+00:00,281,1 45548U 20025T   25038.50002315  .00438407  88656-4  10718-2 0  9991,2 45548  53.0395  46.0780 0008515  47.7419 332.2543 15.95571858265345,2025-03-06 03:00:02+00:00,99.0754296875,1 45548U 20025T   25056.43432917  .07610854  12212-4  74662-3 0  9997,2 45548  53.0240 312.3938 0007118 223.0942 306.1564 16.37409185268229"}],2025-02-27 05:25:26+00:00,97.1289609375,-66.0
46584,2025-02-16 22:00:02+00:00,279,1 46584U 20070BE  25047.91668981  .00824805  32303-3  16873-2 0  9990,2 46584  53.0321  46.5483 0008159  60.4737  37.0435 15.98791383  6083,2025-03-02 14:00:02+00:00,95.8781875,1 46584U 20070BE  25057.34190019  .15689665  12485-4  60477-3 0  9999,2 46584  53.0161 356.9940 0000359  79.4488  12.7939 16.44361266243434"}],2025-02-27 01:12:20+00:00,96.8184609375,-66.0
53987,2025-02-13 22:00:02+00:00,280,1 53987U 22125Z   25044.91668981  .00791991  30306-3  14953-2 0  9992,2 53987  53.2129 139.3719 0002423 295.1293  28.1433 16.00263864  5979,2025-02-27 18:00:02+00:00,99.65121875,1 53987U 22125Z   25057.53323664  .81970053  12472-4  29189-2 0  9999,2 53987  53.2075  73.2855 0000823 148.8178 344.5870 16.44638014132943"}],2025-02-26 16:47:52+00:00,83.854078125,-66.0
